{
    "satellites": [
        {
            "name": "starlink378",
            "title": "Starlink-378 (G17-22) (new)",
            "tle": [
                "1 70510C 26086AA  26115.96159722 -.01676000  00000+0 -30378-2 0  1155",
                "2 70510  97.2789 151.2657 0001471  56.8776 127.2503 16.02381783    16"
            ],
            "stdMag": 5,
            "noradId": "70510",
            "intDes": null,
            "tleUrl": "http://celestrak.org/NORAD/elements/supplemental/sup-gp.php?FILE=starlink&FORMAT=tle",
            "launchDate": "2026-04-19T16:03:09.000Z",
            "active": true,
            "batch": [
                {
                    "noradId": "70510",
                    "tle": [
                        "1 70510C 26086AA  26115.96159722 -.01676000  00000+0 -30378-2 0  1155",
                        "2 70510  97.2789 151.2657 0001471  56.8776 127.2503 16.02381783    16"
                    ]
                },
                {
                    "noradId": "70509",
                    "tle": [
                        "1 70509C 26086Z   26115.96923611 -.01682800  00000+0 -31667-2 0  1156",
                        "2 70509  97.2793 151.2702 0001411  72.3966 147.5558 16.01733048    17"
                    ]
                },
                {
                    "noradId": "70506",
                    "tle": [
                        "1 70506C 26086W   26115.97270833 -.01675600  00000+0 -31322-2 0  1153",
                        "2 70506  97.2792 151.2746 0001463  64.2716 177.4342 16.01844828    13"
                    ]
                },
                {
                    "noradId": "70508",
                    "tle": [
                        "1 70508C 26086Y   26115.98173611 -.01684900  00000+0 -31324-2 0  1157",
                        "2 70508  97.2788 151.2851 0001281  56.3764 239.0052 16.01947036    18"
                    ]
                },
                {
                    "noradId": "70507",
                    "tle": [
                        "1 70507C 26086X   26115.97131944 -.01670300  00000+0 -30526-2 0  1150",
                        "2 70507  97.2792 151.2756 0001467  61.8569 176.9993 16.02235141    17"
                    ]
                },
                {
                    "noradId": "70505",
                    "tle": [
                        "1 70505C 26086V   26115.98937500 -.01704100  00000+0 -31486-2 0  1153",
                        "2 70505  97.2790 151.2945 0001237  50.8462 290.3317 16.02064547    19"
                    ]
                },
                {
                    "noradId": "70504",
                    "tle": [
                        "1 70504C 26086U   26116.00743056 -.01683900  00000+0 -32455-2 0  1169",
                        "2 70504  97.2794 151.3101 0001434  49.0446  26.8441 16.01313716    12"
                    ]
                },
                {
                    "noradId": "70503",
                    "tle": [
                        "1 70503C 26086T   26115.99354167 -.01696400  00000+0 -32355-2 0  1153",
                        "2 70503  97.2792 151.2959 0001163  56.8996 300.8549 16.01505410    12"
                    ]
                },
                {
                    "noradId": "70502",
                    "tle": [
                        "1 70502C 26086S   26115.96993056 -.01660200  00000+0 -32025-2 0  1158",
                        "2 70502  97.2790 151.2681 0001346  73.1136 144.7749 16.01287821    12"
                    ]
                },
                {
                    "noradId": "70501",
                    "tle": [
                        "1 70501C 26086R   26116.02270833 -.01706300  00000+0 -33485-2 0  1160",
                        "2 70501  97.2792 151.3253 0001647  60.9985  99.2426 16.01008047    16"
                    ]
                },
                {
                    "noradId": "70500",
                    "tle": [
                        "1 70500C 26086Q   26116.02201389 -.01684600  00000+0 -33326-2 0  1161",
                        "2 70500  97.2792 151.3235 0001538  59.4563  94.7625 16.00854658    16"
                    ]
                },
                {
                    "noradId": "70499",
                    "tle": [
                        "1 70499C 26086P   26115.96645833 -.01664700  00000+0 -32820-2 0  1152",
                        "2 70499  97.2796 151.2625 0001600  64.5399 128.0870 16.00904342    12"
                    ]
                },
                {
                    "noradId": "70498",
                    "tle": [
                        "1 70498C 26086N   26116.01159722 -.01670800  00000+0 -33706-2 0  1168",
                        "2 70498  97.2797 151.3103 0001484  50.9891  38.2542 16.00501217    12"
                    ]
                },
                {
                    "noradId": "70497",
                    "tle": [
                        "1 70497C 26086M   26116.01229167 -.01677500  00000+0 -33598-2 0  1161",
                        "2 70497  97.2800 151.3119 0001568  53.7864  41.1887 16.00632943    13"
                    ]
                },
                {
                    "noradId": "70496",
                    "tle": [
                        "1 70496C 26086L   26115.97479167 -.01659900  00000+0 -33508-2 0  1155",
                        "2 70496  97.2800 151.2695 0001397  63.7469 171.7434 16.00484718    15"
                    ]
                },
                {
                    "noradId": "70495",
                    "tle": [
                        "1 70495C 26086K   26115.98243056 -.01681700  00000+0 -34241-2 0  1159",
                        "2 70495  97.2805 151.2771 0001271  64.7377 213.0509 16.00343755    12"
                    ]
                },
                {
                    "noradId": "70494",
                    "tle": [
                        "1 70494C 26086J   26115.97131944 -.01681200  00000+0 -34413-2 0  1155",
                        "2 70494  97.2804 151.2644 0001522  62.7600 149.3270 16.00248401    13"
                    ]
                },
                {
                    "noradId": "70493",
                    "tle": [
                        "1 70493C 26086H   26115.98868056 -.01692700  00000+0 -35008-2 0  1154",
                        "2 70493  97.2804 151.2826 0001278  59.2167 251.2001 16.00070301    18"
                    ]
                },
                {
                    "noradId": "70492",
                    "tle": [
                        "1 70492C 26086G   26116.01645833 -.01716200  00000+0 -35911-2 0  1160",
                        "2 70492  97.2806 151.3123 0001612  57.9345  51.0594 15.99873736    18"
                    ]
                },
                {
                    "noradId": "70491",
                    "tle": [
                        "1 70491C 26086F   26116.01437500 -.01714900  00000+0 -36409-2 0  1167",
                        "2 70491  97.2803 151.3084 0001476  52.1605  41.3316 15.99612782    10"
                    ]
                },
                {
                    "noradId": "70490",
                    "tle": [
                        "1 70490C 26086E   26115.97895833 -.01701900  00000+0 -35619-2 0  1154",
                        "2 70490  97.2807 151.2711 0001407  68.1445 183.3712 15.99862946    18"
                    ]
                },
                {
                    "noradId": "70489",
                    "tle": [
                        "1 70489C 26086D   26115.98520833 -.01681900  00000+0 -36060-2 0  1156",
                        "2 70489  97.2814 151.2746 0001237  62.5920 217.9552 15.99419900    13"
                    ]
                },
                {
                    "noradId": "70488",
                    "tle": [
                        "1 70488C 26086C   26115.98520833 -.01694100  00000+0 -36040-2 0  1159",
                        "2 70488  97.2809 151.2755 0001290  60.6316 221.8263 15.99566626    14"
                    ]
                },
                {
                    "noradId": "70487",
                    "tle": [
                        "1 70487C 26086B   26116.01229167 -.01706000  00000+0 -37001-2 0  1161",
                        "2 70487  97.2813 151.3035 0001428  52.9665  22.1481 15.99224491    19"
                    ]
                },
                {
                    "noradId": "70486",
                    "tle": [
                        "1 70486C 26086A   26115.97479167 -.01701800  00000+0 -36917-2 0  1158",
                        "2 70486  97.2815 151.2619 0001502  67.6400 150.1371 15.99218426    11"
                    ]
                }
            ]
        }
    ],
    "config": {}
}